start=new Date('2022-02-20T00:00:00.000Z').valueOf();
sats=[{"GP_ID":"196428690","PERIOD":"95.593","NORAD_CAT_ID":"46382","MEAN_ELEMENT_THEORY":"SGP4","TLE_LINE2":"2 46382  53.0541 131.4258 0001669  65.5292 294.5871 15.06391165 82012","FILE":"3308986","RCS_SIZE":"LARGE","MEAN_MOTION_DDOT":"0.0000000000000","OBJECT_TYPE":"PAYLOAD","SITE":"AFETR","CLASSIFICATION_TYPE":"U","REF_FRAME":"TEME","REV_AT_EPOCH":"8201","SEMIMAJOR_AXIS":"6925.376","DECAY_DATE":null,"ECCENTRICITY":"0.00016690","EPOCH":"2022-02-19T14:55:25.610016","MEAN_MOTION_DOT":"-0.00002734","ELEMENT_SET_NO":"999","ARG_OF_PERICENTER":"65.5292","CENTER_NAME":"EARTH","APOAPSIS":"548.396","MEAN_ANOMALY":"294.5871","OBJECT_ID":"2020-062BK","OBJECT_NAME":"STARLINK-1769","TLE_LINE1":"1 46382U 20062BK  22050.62182419 -.00002734  00000-0 -16473-3 0  9997","MEAN_MOTION":"15.06391165","BSTAR":"-0.00016473000000","INCLINATION":"53.0541","PERIAPSIS":"546.085","LAUNCH_DATE":"2020-09-03","TIME_SYSTEM":"UTC","EPHEMERIS_TYPE":"0","COUNTRY_CODE":"US","RA_OF_ASC_NODE":"131.4258"},{"MEAN_MOTION":"15.06396889","TLE_LINE1":"1 46383U 20062BL  22050.67480422 -.00000475  00000-0 -13026-4 0  9990","PERIAPSIS":"546.316","BSTAR":"-0.00001302600000","INCLINATION":"53.0545","OBJECT_NAME":"STARLINK-1770","MEAN_ANOMALY":"283.8610","OBJECT_ID":"2020-062BL","RA_OF_ASC_NODE":"176.1783","COUNTRY_CODE":"US","LAUNCH_DATE":"2020-09-03","TIME_SYSTEM":"UTC","EPHEMERIS_TYPE":"0","ELEMENT_SET_NO":"999","ARG_OF_PERICENTER":"76.2524","MEAN_MOTION_DOT":"-0.00000475","EPOCH":"2022-02-19T16:11:43.084608","CENTER_NAME":"EARTH","APOAPSIS":"548.130","SITE":"AFETR","REF_FRAME":"TEME","CLASSIFICATION_TYPE":"U","MEAN_MOTION_DDOT":"0.0000000000000","OBJECT_TYPE":"PAYLOAD","ECCENTRICITY":"0.00013100","DECAY_DATE":null,"REV_AT_EPOCH":"8138","SEMIMAJOR_AXIS":"6925.358","NORAD_CAT_ID":"46383","MEAN_ELEMENT_THEORY":"SGP4","GP_ID":"196427441","PERIOD":"95.592","FILE":"3308986","RCS_SIZE":"LARGE","TLE_LINE2":"2 46383  53.0545 176.1783 0001310  76.2524 283.8610 15.06396889 81385"},{"APOAPSIS":"548.119","CENTER_NAME":"EARTH","ELEMENT_SET_NO":"999","ARG_OF_PERICENTER":"79.9668","MEAN_MOTION_DOT":"-0.00000133","EPOCH":"2022-02-19T17:52:34.061952","RA_OF_ASC_NODE":"175.8562","COUNTRY_CODE":"US","EPHEMERIS_TYPE":"0","TIME_SYSTEM":"UTC","LAUNCH_DATE":"2020-09-03","PERIAPSIS":"546.303","INCLINATION":"53.0558","BSTAR":"0.00000995860000","MEAN_MOTION":"15.06400714","TLE_LINE1":"1 46384U 20062BM  22050.74483868 -.00000133  00000-0  99586-5 0  9992","OBJECT_NAME":"STARLINK-1771","OBJECT_ID":"2020-062BM","MEAN_ANOMALY":"280.1469","RCS_SIZE":"LARGE","FILE":"3308986","TLE_LINE2":"2 46384  53.0558 175.8562 0001311  79.9668 280.1469 15.06400714 81397","NORAD_CAT_ID":"46384","MEAN_ELEMENT_THEORY":"SGP4","PERIOD":"95.592","GP_ID":"196427689","ECCENTRICITY":"0.00013110","DECAY_DATE":null,"SEMIMAJOR_AXIS":"6925.346","REV_AT_EPOCH":"8139","REF_FRAME":"TEME","CLASSIFICATION_TYPE":"U","SITE":"AFETR","OBJECT_TYPE":"PAYLOAD","MEAN_MOTION_DDOT":"0.0000000000000"},{"LAUNCH_DATE":"2020-10-06","TIME_SYSTEM":"UTC","EPHEMERIS_TYPE":"0","COUNTRY_CODE":"US","RA_OF_ASC_NODE":"335.2629","MEAN_ANOMALY":"283.8604","OBJECT_ID":"2020-070A","OBJECT_NAME":"STARLINK-1644","MEAN_MOTION":"15.06401009","TLE_LINE1":"1 46532U 20070A   22050.87752733 -.00000112  00000-0  11412-4 0  9998","BSTAR":"0.00001141200000","INCLINATION":"53.0546","PERIAPSIS":"546.067","CENTER_NAME":"EARTH","APOAPSIS":"548.354","EPOCH":"2022-02-19T21:03:38.361312","MEAN_MOTION_DOT":"-0.00000112","ELEMENT_SET_NO":"999","ARG_OF_PERICENTER":"76.2568","REV_AT_EPOCH":"7661","SEMIMAJOR_AXIS":"6925.345","DECAY_DATE":null,"ECCENTRICITY":"0.00016510","MEAN_MOTION_DDOT":"0.0000000000000","OBJECT_TYPE":"PAYLOAD","SITE":"AFETR","CLASSIFICATION_TYPE":"U","REF_FRAME":"TEME","TLE_LINE2":"2 46532  53.0546 335.2629 0001651  76.2568 283.8604 15.06401009 76619","FILE":"3308986","RCS_SIZE":"LARGE","GP_ID":"196428704","PERIOD":"95.592","MEAN_ELEMENT_THEORY":"SGP4","NORAD_CAT_ID":"46532"},{"ARG_OF_PERICENTER":"68.8416","ELEMENT_SET_NO":"999","MEAN_MOTION_DOT":"-0.00001434","EPOCH":"2022-02-19T11:46:19.759008","APOAPSIS":"548.346","CENTER_NAME":"EARTH","PERIAPSIS":"546.104","BSTAR":"-0.00007736800000","INCLINATION":"53.0523","TLE_LINE1":"1 46533U 20070B   22050.49050647 -.00001434  00000-0 -77368-4 0  9993","MEAN_MOTION":"15.06396319","OBJECT_NAME":"STARLINK-1648","OBJECT_ID":"2020-070B","MEAN_ANOMALY":"291.2746","RA_OF_ASC_NODE":"336.9960","COUNTRY_CODE":"US","EPHEMERIS_TYPE":"0","LAUNCH_DATE":"2020-10-06","TIME_SYSTEM":"UTC","NORAD_CAT_ID":"46533","MEAN_ELEMENT_THEORY":"SGP4","PERIOD":"95.592","GP_ID":"196390643","RCS_SIZE":"LARGE","FILE":"3308480","TLE_LINE2":"2 46533  53.0523 336.9960 0001619  68.8416 291.2746 15.06396319 76554","CLASSIFICATION_TYPE":"U","REF_FRAME":"TEME","SITE":"AFETR","OBJECT_TYPE":"PAYLOAD","MEAN_MOTION_DDOT":"0.0000000000000","ECCENTRICITY":"0.00016190","DECAY_DATE":null,"SEMIMAJOR_AXIS":"6925.360","REV_AT_EPOCH":"7655"},{"MEAN_ANOMALY":"300.0430","OBJECT_ID":"2020-070C","OBJECT_NAME":"STARLINK-1659","INCLINATION":"53.0562","BSTAR":"0.00004774500000","PERIAPSIS":"546.142","MEAN_MOTION":"15.06403895","TLE_LINE1":"1 46534U 20070C   22050.93650447  .00000430  00000-0  47745-4 0  9996","EPHEMERIS_TYPE":"0","LAUNCH_DATE":"2020-10-06","TIME_SYSTEM":"UTC","COUNTRY_CODE":"US","RA_OF_ASC_NODE":"334.9996","EPOCH":"2022-02-19T22:28:33.986208","MEAN_MOTION_DOT":"0.00000430","ELEMENT_SET_NO":"999","ARG_OF_PERICENTER":"60.0711","APOAPSIS":"548.261","CENTER_NAME":"EARTH","OBJECT_TYPE":"PAYLOAD","MEAN_MOTION_DDOT":"0.0000000000000","REF_FRAME":"TEME","CLASSIFICATION_TYPE":"U","SITE":"AFETR","SEMIMAJOR_AXIS":"6925.337","REV_AT_EPOCH":"7662","DECAY_DATE":null,"ECCENTRICITY":"0.00015300","PERIOD":"95.592","GP_ID":"196427703","NORAD_CAT_ID":"46534","MEAN_ELEMENT_THEORY":"SGP4","TLE_LINE2":"2 46534  53.0562 334.9996 0001530  60.0711 300.0430 15.06403895 76624","RCS_SIZE":"LARGE","FILE":"3308986"},{"LAUNCH_DATE":"2020-10-06","TIME_SYSTEM":"UTC","EPHEMERIS_TYPE":"0","RA_OF_ASC_NODE":"335.0539","COUNTRY_CODE":"US","OBJECT_NAME":"STARLINK-1663","OBJECT_ID":"2020-070D","MEAN_ANOMALY":"285.3860","MEAN_MOTION":"15.06397417","TLE_LINE1":"1 46535U 20070D   22050.92544707  .00000029  00000-0  20826-4 0  9992","PERIAPSIS":"546.077","BSTAR":"0.00002082600000","INCLINATION":"53.0553","CENTER_NAME":"EARTH","APOAPSIS":"548.366","MEAN_MOTION_DOT":"0.00000029","EPOCH":"2022-02-19T22:12:38.626848","ELEMENT_SET_NO":"999","ARG_OF_PERICENTER":"74.7312","REV_AT_EPOCH":"7661","SEMIMAJOR_AXIS":"6925.356","ECCENTRICITY":"0.00016520","DECAY_DATE":null,"MEAN_MOTION_DDOT":"0.0000000000000","OBJECT_TYPE":"PAYLOAD","SITE":"AFETR","REF_FRAME":"TEME","CLASSIFICATION_TYPE":"U","TLE_LINE2":"2 46535  53.0553 335.0539 0001652  74.7312 285.3860 15.06397417 76617","FILE":"3308986","RCS_SIZE":"LARGE","GP_ID":"196427950","PERIOD":"95.592","NORAD_CAT_ID":"46535","MEAN_ELEMENT_THEORY":"SGP4"},{"FILE":"3308986","RCS_SIZE":"LARGE","TLE_LINE2":"2 46537  53.0546 335.2287 0001604  75.2433 284.8733 15.06398379 76611","NORAD_CAT_ID":"46537","MEAN_ELEMENT_THEORY":"SGP4","GP_ID":"196428204","PERIOD":"95.592","DECAY_DATE":null,"ECCENTRICITY":"0.00016040","REV_AT_EPOCH":"7661","SEMIMAJOR_AXIS":"6925.354","SITE":"AFETR","REF_FRAME":"TEME","CLASSIFICATION_TYPE":"U","MEAN_MOTION_DDOT":"0.0000000000000","OBJECT_TYPE":"PAYLOAD","CENTER_NAME":"EARTH","APOAPSIS":"548.329","ARG_OF_PERICENTER":"75.2433","ELEMENT_SET_NO":"999","EPOCH":"2022-02-19T21:14:15.763488","MEAN_MOTION_DOT":"-0.00000469","COUNTRY_CODE":"US","RA_OF_ASC_NODE":"335.2287","TIME_SYSTEM":"UTC","LAUNCH_DATE":"2020-10-06","EPHEMERIS_TYPE":"0","TLE_LINE1":"1 46537U 20070F   22050.88490467 -.00000469  00000-0 -12582-4 0  9992","MEAN_MOTION":"15.06398379","BSTAR":"-0.00001258200000","INCLINATION":"53.0546","PERIAPSIS":"546.108","MEAN_ANOMALY":"284.8733","OBJECT_ID":"2020-070F","OBJECT_NAME":"STARLINK-1672"},{"RA_OF_ASC_NODE":"335.9254","COUNTRY_CODE":"US","EPHEMERIS_TYPE":"0","LAUNCH_DATE":"2020-10-06","TIME_SYSTEM":"UTC","PERIAPSIS":"545.995","BSTAR":"0.00000930640000","INCLINATION":"53.0554","MEAN_MOTION":"15.06393898","TLE_LINE1":"1 46538U 20070G   22050.73009597 -.00000143  00000-0  93064-5 0  9990","OBJECT_NAME":"STARLINK-1678","OBJECT_ID":"2020-070G","MEAN_ANOMALY":"291.6112","APOAPSIS":"548.469","CENTER_NAME":"EARTH","ARG_OF_PERICENTER":"68.5067","ELEMENT_SET_NO":"999","MEAN_MOTION_DOT":"-0.00000143","EPOCH":"2022-02-19T17:31:20.291808","ECCENTRICITY":"0.00017860","DECAY_DATE":null,"SEMIMAJOR_AXIS":"6925.367","REV_AT_EPOCH":"7658","REF_FRAME":"TEME","CLASSIFICATION_TYPE":"U","SITE":"AFETR","OBJECT_TYPE":"PAYLOAD","MEAN_MOTION_DDOT":"0.0000000000000","RCS_SIZE":"LARGE","FILE":"3308986","TLE_LINE2":"2 46538  53.0554 335.9254 0001786  68.5067 291.6112 15.06393898 76585","NORAD_CAT_ID":"46538","MEAN_ELEMENT_THEORY":"SGP4","PERIOD":"95.593","GP_ID":"196426955"},{"OBJECT_NAME":"STARLINK-1684","MEAN_ANOMALY":"258.4697","OBJECT_ID":"2020-070H","PERIAPSIS":"350.612","BSTAR":"0.00107490000000","INCLINATION":"53.0467","TLE_LINE1":"1 46539U 20070H   22050.90394655  .00149700  00000-0  10749-2 0  9990","MEAN_MOTION":"15.72693584","EPHEMERIS_TYPE":"0","LAUNCH_DATE":"2020-10-06","TIME_SYSTEM":"UTC","RA_OF_ASC_NODE":"312.9747","COUNTRY_CODE":"US","MEAN_MOTION_DOT":"0.00149700","EPOCH":"2022-02-19T21:41:40.981920","ELEMENT_SET_NO":"999","ARG_OF_PERICENTER":"101.6419","APOAPSIS":"351.797","CENTER_NAME":"EARTH","OBJECT_TYPE":"PAYLOAD","MEAN_MOTION_DDOT":"0.0000000000000","REF_FRAME":"TEME","CLASSIFICATION_TYPE":"U","SITE":"AFETR","SEMIMAJOR_AXIS":"6729.339","REV_AT_EPOCH":"7693","ECCENTRICITY":"0.00008810","DECAY_DATE":null,"PERIOD":"91.563","GP_ID":"196427203","NORAD_CAT_ID":"46539","MEAN_ELEMENT_THEORY":"SGP4","TLE_LINE2":"2 46539  53.0467 312.9747 0000881 101.6419 258.4697 15.72693584 76932","RCS_SIZE":"LARGE","FILE":"3308986"}];
